{
  "type": "FeatureCollection",
  "features": [
    {
      "type": "Feature",
      "properties": {
        "norad_id": 32393,
        "name": "COSMOS 2434 (721)",
        "group": "gnss",
        "lat": -39.06706812466155,
        "lon": 40.7560106634848,
        "alt_km": 19145.698869434433,
        "timestamp": "2025-12-26T04:40:06.028910+00:00",
        "meta_object_name": "COSMOS 2434 (721)",
        "meta_object_id": "2007-065A",
        "meta_epoch": "2025-12-25T04:50:38.690880",
        "meta_mean_motion": 2.13101426,
        "meta_eccentricity": 0.00048155,
        "meta_inclination": 64.316,
        "meta_ra_of_asc_node": 197.7825,
        "meta_arg_of_pericenter": 72.3335,
        "meta_mean_anomaly": 110.4789,
        "meta_ephemeris_type": 0,
        "meta_classification_type": "U",
        "meta_norad_cat_id": 32393,
        "meta_element_set_no": 999,
        "meta_rev_at_epoch": 14006,
        "meta_bstar": 0,
        "meta_mean_motion_dot": 1.04e-06,
        "meta_mean_motion_ddot": 0,
        "tle_line1": "1 32393U 07065A   25359.20183670  .00000104  00000+0  00000+0 0  9992",
        "tle_line2": "2 32393  64.3160 197.7825 0004815  72.3335 110.4789  2.13101426140063"
      },
      "geometry": {
        "type": "Point",
        "coordinates": [
          40.7560106634848,
          -39.06706812466155
        ]
      }
    },
    {
      "type": "Feature",
      "properties": {
        "norad_id": 32395,
        "name": "COSMOS 2436 (723)",
        "group": "gnss",
        "lat": -2.4523885131159737,
        "lon": -163.35778822668135,
        "alt_km": 19086.582437156652,
        "timestamp": "2025-12-26T04:40:06.028923+00:00",
        "meta_object_name": "COSMOS 2436 (723)",
        "meta_object_id": "2007-065C",
        "meta_epoch": "2025-12-25T06:17:47.253408",
        "meta_mean_motion": 2.1310019,
        "meta_eccentricity": 0.0017826,
        "meta_inclination": 64.3246,
        "meta_ra_of_asc_node": 197.8509,
        "meta_arg_of_pericenter": 10.3034,
        "meta_mean_anomaly": 351.9575,
        "meta_ephemeris_type": 0,
        "meta_classification_type": "U",
        "meta_norad_cat_id": 32395,
        "meta_element_set_no": 999,
        "meta_rev_at_epoch": 14002,
        "meta_bstar": 0,
        "meta_mean_motion_dot": 1.04e-06,
        "meta_mean_motion_ddot": 0,
        "tle_line1": "1 32395U 07065C   25359.26235247  .00000104  00000+0  00000+0 0  9998",
        "tle_line2": "2 32395  64.3246 197.8509 0017826  10.3034 351.9575  2.13100190140022"
      },
      "geometry": {
        "type": "Point",
        "coordinates": [
          -163.35778822668135,
          -2.4523885131159737
        ]
      }
    },
    {
      "type": "Feature",
      "properties": {
        "norad_id": 32711,
        "name": "GPS BIIRM-6 (PRN 07)",
        "group": "gnss",
        "lat": 32.73896362004605,
        "lon": -175.83393217411617,
        "alt_km": 20670.535486434896,
        "timestamp": "2025-12-26T04:40:06.028934+00:00",
        "meta_object_name": "GPS BIIRM-6 (PRN 07)",
        "meta_object_id": "2008-012A",
        "meta_epoch": "2025-12-25T15:16:44.562432",
        "meta_mean_motion": 2.00566129,
        "meta_eccentricity": 0.0203018,
        "meta_inclination": 54.4785,
        "meta_ra_of_asc_node": 156.8581,
        "meta_arg_of_pericenter": 245.1029,
        "meta_mean_anomaly": 112.7632,
        "meta_ephemeris_type": 0,
        "meta_classification_type": "U",
        "meta_norad_cat_id": 32711,
        "meta_element_set_no": 999,
        "meta_rev_at_epoch": 13027,
        "meta_bstar": 0,
        "meta_mean_motion_dot": 1.01e-06,
        "meta_mean_motion_ddot": 0,
        "tle_line1": "1 32711U 08012A   25359.63662688  .00000101  00000+0  00000+0 0  9994",
        "tle_line2": "2 32711  54.4785 156.8581 0203018 245.1029 112.7632  2.00566129130276"
      },
      "geometry": {
        "type": "Point",
        "coordinates": [
          -175.83393217411617,
          32.73896362004605
        ]
      }
    },
    {
      "type": "Feature",
      "properties": {
        "norad_id": 35752,
        "name": "GPS BIIRM-8 (PRN 05)",
        "group": "gnss",
        "lat": 46.124529265253145,
        "lon": 78.61710672316308,
        "alt_km": 20048.76954667698,
        "timestamp": "2025-12-26T04:40:06.028947+00:00",
        "meta_object_name": "GPS BIIRM-8 (PRN 05)",
        "meta_object_id": "2009-043A",
        "meta_epoch": "2025-12-25T15:05:55.166208",
        "meta_mean_motion": 2.00564825,
        "meta_eccentricity": 0.0051563,
        "meta_inclination": 56.0999,
        "meta_ra_of_asc_node": 34.2749,
        "meta_arg_of_pericenter": 81.7012,
        "meta_mean_anomaly": 290.5995,
        "meta_ephemeris_type": 0,
        "meta_classification_type": "U",
        "meta_norad_cat_id": 35752,
        "meta_element_set_no": 999,
        "meta_rev_at_epoch": 11988,
        "meta_bstar": 0,
        "meta_mean_motion_dot": -5.1e-07,
        "meta_mean_motion_ddot": 0,
        "tle_line1": "1 35752U 09043A   25359.62911072 -.00000051  00000+0  00000+0 0  9995",
        "tle_line2": "2 35752  56.0999  34.2749 0051563  81.7012 290.5995  2.00564825119888"
      },
      "geometry": {
        "type": "Point",
        "coordinates": [
          78.61710672316308,
          46.124529265253145
        ]
      }
    },
    {
      "type": "Feature",
      "properties": {
        "norad_id": 36111,
        "name": "COSMOS 2456 (730)",
        "group": "gnss",
        "lat": 19.397410812925266,
        "lon": 86.37370186768749,
        "alt_km": 19127.172355801406,
        "timestamp": "2025-12-26T04:40:06.028958+00:00",
        "meta_object_name": "COSMOS 2456 (730)",
        "meta_object_id": "2009-070A",
        "meta_epoch": "2025-12-24T09:16:29.146080",
        "meta_mean_motion": 2.13103739,
        "meta_eccentricity": 0.00036447,
        "meta_inclination": 64.9059,
        "meta_ra_of_asc_node": 76.94,
        "meta_arg_of_pericenter": 294.9884,
        "meta_mean_anomaly": 139.4332,
        "meta_ephemeris_type": 0,
        "meta_classification_type": "U",
        "meta_norad_cat_id": 36111,
        "meta_element_set_no": 999,
        "meta_rev_at_epoch": 12470,
        "meta_bstar": 0,
        "meta_mean_motion_dot": -1e-08,
        "meta_mean_motion_ddot": 0,
        "tle_line1": "1 36111U 09070A   25358.38644845 -.00000001  00000+0  00000+0 0  9993",
        "tle_line2": "2 36111  64.9059  76.9400 0003644 294.9884 139.4332  2.13103739124702"
      },
      "geometry": {
        "type": "Point",
        "coordinates": [
          86.37370186768749,
          19.397410812925266
        ]
      }
    },
    {
      "type": "Feature",
      "properties": {
        "norad_id": 36112,
        "name": "COSMOS 2457 (733)",
        "group": "gnss",
        "lat": 26.458604234790855,
        "lon": -116.73814151064838,
        "alt_km": 19115.96245024745,
        "timestamp": "2025-12-26T04:40:06.028970+00:00",
        "meta_object_name": "COSMOS 2457 (733)",
        "meta_object_id": "2009-070B",
        "meta_epoch": "2025-12-25T12:53:15.895392",
        "meta_mean_motion": 2.13101109,
        "meta_eccentricity": 0.0004451,
        "meta_inclination": 64.8923,
        "meta_ra_of_asc_node": 76.7479,
        "meta_arg_of_pericenter": 163.6164,
        "meta_mean_anomaly": 202.4906,
        "meta_ephemeris_type": 0,
        "meta_classification_type": "U",
        "meta_norad_cat_id": 36112,
        "meta_element_set_no": 999,
        "meta_rev_at_epoch": 12473,
        "meta_bstar": 0,
        "meta_mean_motion_dot": -5e-08,
        "meta_mean_motion_ddot": 0,
        "tle_line1": "1 36112U 09070B   25359.53698953 -.00000005  00000+0  00000+0 0  9995",
        "tle_line2": "2 36112  64.8923  76.7479 0004451 163.6164 202.4906  2.13101109124736"
      },
      "geometry": {
        "type": "Point",
        "coordinates": [
          -116.73814151064838,
          26.458604234790855
        ]
      }
    },
    {
      "type": "Feature",
      "properties": {
        "norad_id": 36402,
        "name": "COSMOS 2460 (732)",
        "group": "gnss",
        "lat": 26.839903714527782,
        "lon": 126.98770506062203,
        "alt_km": 19130.982202304902,
        "timestamp": "2025-12-26T04:40:06.028982+00:00",
        "meta_object_name": "COSMOS 2460 (732)",
        "meta_object_id": "2010-007C",
        "meta_epoch": "2025-12-25T05:13:15.714336",
        "meta_mean_motion": 2.13106358,
        "meta_eccentricity": 0.00024876,
        "meta_inclination": 65.5229,
        "meta_ra_of_asc_node": 320.3522,
        "meta_arg_of_pericenter": 284.3328,
        "meta_mean_anomaly": 196.3839,
        "meta_ephemeris_type": 0,
        "meta_classification_type": "U",
        "meta_norad_cat_id": 36402,
        "meta_element_set_no": 999,
        "meta_rev_at_epoch": 12302,
        "meta_bstar": 0,
        "meta_mean_motion_dot": -3.2e-07,
        "meta_mean_motion_ddot": 0,
        "tle_line1": "1 36402U 10007C   25359.21754299 -.00000032  00000+0  00000+0 0  9990",
        "tle_line2": "2 36402  65.5229 320.3522 0002487 284.3328 196.3839  2.13106358123020"
      },
      "geometry": {
        "type": "Point",
        "coordinates": [
          126.98770506062203,
          26.839903714527782
        ]
      }
    }
  ]
}